[{"OBJECT_NAME":"HAWK-11A","OBJECT_ID":"2024-247F","EPOCH":"2026-03-09T12:17:43.893312","MEAN_MOTION":15.28849427,"ECCENTRICITY":0.00054663,"INCLINATION":44.9941,"RA_OF_ASC_NODE":114.3328,"ARG_OF_PERICENTER":327.3713,"MEAN_ANOMALY":32.6832,"EPHEMERIS_TYPE":0,"CLASSIFICATION_TYPE":"U","NORAD_CAT_ID":62382,"ELEMENT_SET_NO":999,"REV_AT_EPOCH":6774,"BSTAR":0.00034106017,"MEAN_MOTION_DOT":9.457e-5,"MEAN_MOTION_DDOT":0},{"OBJECT_NAME":"STARLINK-36509","OBJECT_ID":"2026-005E","EPOCH":"2026-03-09T22:00:01.999584","MEAN_MOTION":15.27549973,"ECCENTRICITY":0.00010562,"INCLINATION":43.0014,"RA_OF_ASC_NODE":236.5508,"ARG_OF_PERICENTER":303.7669,"MEAN_ANOMALY":32.8883,"EPHEMERIS_TYPE":0,"CLASSIFICATION_TYPE":"U","NORAD_CAT_ID":67408,"ELEMENT_SET_NO":999,"REV_AT_EPOCH":584,"BSTAR":0.0026600564,"MEAN_MOTION_DOT":0.00073602,"MEAN_MOTION_DDOT":0}]
